BLUEBON                 
1 62688U 25009CH  26068.70316231  .00010452  00000+0  37313-3 0  9992
2 62688  97.4017 152.2033 0001193  43.3900 316.7434 15.29047253 63767
STARLINK-35990          
1 66792U 25278B   26068.50555682  .00023226  00000+0  85071-3 0  9990
2 66792  42.9974 115.1677 0000993 201.3802 158.7008 15.27586169 15186
